SEEDS II (CO-66)        
1 32791U 08021J   26068.92109284  .00023758  00000+0  84213-3 0  9995
2 32791  97.7519  62.3611 0001448 359.2618   0.8619 15.29097235972108
STARLINK-34635          
1 64761U 25147G   26068.75174971  .00022343  00000+0  76430-3 0  9992
2 64761  53.1591 242.2950 0000685  72.7511 287.3564 15.30196292 38763
